STARLINK-30369          
1 57781U 23134L   26068.39817921  .00000027  00000+0  10492-4 0  9991
2 57781  42.9965 195.9954 0000523 285.4922  74.5872 15.27583915139461
TRANSPORTER-12 OBJECT BT
1 62674U 25009BT  26068.71416991  .00013824  00000+0  51029-3 0  9998
2 62674  97.4094 151.5992 0003682 313.5044  46.5889 15.27872239121360
